      2.10          N: GNSS NAV DATA                        RINEX VERSION / TYPE
fic2rin                                 12/28/2022 00:17:34 PGM / RUN BY / DATE
                                                            END OF HEADER
14 22 12 27 18  0  0.0 -.607026740909D-04  .693489710102D-11  .000000000000D+00
     .136000000000D+03 -.334375000000D+01  .514021411055D-08  .145881038085D+01
    -.121071934700D-06  .248988496605D-02  .650808215141D-05  .515365692139D+04
     .237600000000D+06  .104308128357D-06  .294675855104D+01  .745058059692D-08
     .950493097316D+00  .248281250000D+03 -.306755225276D+01 -.841213611352D-08
    -.411088552060D-09  .100000000000D+01  .224200000000D+04  .000000000000D+00
     .240000000000D+01  .000000000000D+00 -.791624188423D-08  .392000000000D+03
     .230400000000D+06  .400000000000D+01
2  22 12 27 20  0  0.0 -.630709342659D-03  .216004991671D-11  .000000000000D+00
     .630000000000D+02  .919687500000D+02  .424517682865D-08  .290387737195D+01
     .475719571114D-05  .200959969079D-01  .502541661263D-05  .515369419098D+04
     .244800000000D+06  .245869159698D-06 -.135634584600D+01  .819563865662D-07
     .966757067118D+00  .283812500000D+03 -.134805963077D+01 -.779925344164D-08
     .115719105880D-09  .100000000000D+01  .224200000000D+04  .000000000000D+00
     .240000000000D+01  .000000000000D+00 -.176951289177D-07  .630000000000D+02
     .237600000000D+06  .400000000000D+01
1  22 12 27 20  0  0.0  .232010148466D-03 -.500222085975D-11  .000000000000D+00
     .590000000000D+02  .822812500000D+02  .382801659511D-08 -.241893740376D+01
     .426173210144D-05  .121498805238D-01  .596977770329D-05  .515365571785D+04
     .244800000000D+06  .128522515297D-06 -.126056881733D+01 -.115483999252D-06
     .989014452833D+00  .278781250000D+03  .938957208525D+00 -.778853870961D-08
     .346443002170D-09  .100000000000D+01  .224200000000D+04  .000000000000D+00
     .240000000000D+01  .000000000000D+00  .465661287308D-08  .590000000000D+02
     .237600000000D+06  .400000000000D+01
9  22 12 27 20  0  0.0 -.246460549533D-03  .636646291241D-11  .000000000000D+00
     .210000000000D+02 -.913437500000D+02  .444161358246D-08  .166193696577D+00
    -.486336648464D-05  .262912025210D-02  .102780759335D-04  .515370563698D+04
     .244800000000D+06 -.372529029846D-08  .796836156636D+00 -.782310962677D-07
     .955366140343D+00  .177000000000D+03  .195313920075D+01 -.801354808216D-08
     .842892252703D-10  .100000000000D+01  .224200000000D+04  .000000000000D+00
     .240000000000D+01  .000000000000D+00  .931322574615D-09  .210000000000D+02
     .237600000000D+06  .400000000000D+01
5  22 12 27 20  0  0.0 -.109714921564D-03 -.147792889038D-11  .000000000000D+00
     .480000000000D+02 -.642500000000D+02  .453697469749D-08  .131446665316D+00
    -.322237610817D-05  .581218895968D-02  .361353158951D-05  .515358866692D+04
     .244800000000D+06 -.502914190292D-07 -.273129687348D+00  .335276126862D-07
     .964150457239D+00  .311000000000D+03  .114064260848D+01 -.842427947648D-08
    -.621454457501D-10  .100000000000D+01  .224200000000D+04  .000000000000D+00
     .240000000000D+01  .000000000000D+00 -.111758708954D-07  .480000000000D+02
     .237600000000D+06  .400000000000D+01
3  22 12 27 20  0  0.0 -.374651048332D-03  .102318153949D-11  .000000000000D+00
     .560000000000D+02 -.667187500000D+02  .428624996809D-08  .272250219327D+01
    -.345334410667D-05  .441459694412D-02  .342726707458D-05  .515374988747D+04
     .244800000000D+06  .223517417908D-07 -.228565084539D+00 -.149011611938D-07
     .977141567697D+00  .320531250000D+03  .103971033988D+01 -.818712674098D-08
    -.532165023952D-10  .100000000000D+01  .224200000000D+04  .000000000000D+00
     .240000000000D+01  .000000000000D+00  .186264514923D-08  .560000000000D+02
     .237600000000D+06  .400000000000D+01
7  22 12 27 20  0  0.0  .268105417490D-03 -.568434188608D-11  .000000000000D+00
     .880000000000D+02  .198750000000D+02  .489020369661D-08 -.302767427771D+01
     .886619091034D-06  .165504938923D-01  .884011387825D-05  .515360339355D+04
     .244800000000D+06  .102445483208D-06  .186875703264D+01 -.301748514175D-06
     .950071381921D+00  .203093750000D+03 -.223320140818D+01 -.787282793488D-08
     .442875590403D-09  .100000000000D+01  .224200000000D+04  .000000000000D+00
     .340000000000D+01  .000000000000D+00 -.111758708954D-07  .880000000000D+02
     .237600000000D+06  .400000000000D+01
6  22 12 27 20  0  0.0  .548335723579D-03  .693489710102D-11  .000000000000D+00
     .450000000000D+02  .754375000000D+02  .394373570099D-08 -.213833604372D+01
     .399723649025D-05  .279519264586D-02  .575557351112D-05  .515358184624D+04
     .244800000000D+06 -.186264514923D-07 -.126886587425D+01  .447034835815D-07
     .988279697839D+00  .285593750000D+03 -.895927344296D+00 -.795676000242D-08
     .210723063176D-09  .100000000000D+01  .224200000000D+04  .000000000000D+00
     .240000000000D+01  .000000000000D+00  .372529029846D-08  .450000000000D+02
     .237600000000D+06  .400000000000D+01
8  22 12 27 20  0  0.0 -.100737903267D-03 -.193267624127D-11  .000000000000D+00
     .104000000000D+03  .367812500000D+02  .440661212451D-08 -.156132663278D+00
     .181421637535D-05  .804698513821D-02  .105500221252D-04  .515363748932D+04
     .244800000000D+06  .126659870148D-06 -.234847024616D+01  .186264514923D-07
     .960935263199D+00  .175093750000D+03  .180060691199D+00 -.806783605776D-08
    -.441089801732D-09  .100000000000D+01  .224200000000D+04  .000000000000D+00
     .340000000000D+01  .000000000000D+00  .512227416039D-08  .104000000000D+03
     .237600000000D+06  .400000000000D+01
4  22 12 27 20  0  0.0 -.603776425123D-04  .738964445191D-11  .000000000000D+00
     .106000000000D+03 -.925625000000D+02  .425303429881D-08 -.557413790042D+00
    -.478513538837D-05  .225245242473D-02  .107251107693D-04  .515373264503D+04
     .244800000000D+06  .875443220139D-07  .852319391895D+00 -.167638063431D-07
     .962137176212D+00  .171562500000D+03 -.309980175809D+01 -.790854370830D-08
     .108575951196D-09  .100000000000D+01  .224200000000D+04  .000000000000D+00
     .240000000000D+01  .000000000000D+00 -.465661287308D-08  .874000000000D+03
     .237600000000D+06  .400000000000D+01
21 22 12 27 20  0  0.0  .152966473252D-03  .341060513165D-12  .000000000000D+00
     .900000000000D+01  .768750000000D+02  .455304679553D-08 -.214827801012D+00
     .398419797421D-05  .246994679328D-01  .666826963425D-05  .515366739845D+04
     .244800000000D+06 -.121071934700D-06 -.136009533137D+01 -.493600964546D-06
     .961083427542D+00  .256968750000D+03 -.848202655571D+00 -.859142929609D-08
     .246081678861D-09  .100000000000D+01  .224200000000D+04  .000000000000D+00
     .240000000000D+01  .000000000000D+00 -.102445483208D-07  .900000000000D+01
     .237600000000D+06  .400000000000D+01
12 22 12 27 20  0  0.0 -.321029219776D-03 -.454747350886D-11  .000000000000D+00
     .250000000000D+02 -.187500000000D+00  .459233414629D-08  .248614039027D+01
    -.147148966789D-06  .877505773678D-02  .680424273014D-05  .515368582916D+04
     .244800000000D+06 -.186264514923D-08  .298296380442D+01 -.150874257088D-06
     .967153060024D+00  .247093750000D+03  .132181367206D+01 -.795640284469D-08
    -.432160858377D-09  .100000000000D+01  .224200000000D+04  .000000000000D+00
     .240000000000D+01  .000000000000D+00 -.125728547573D-07  .250000000000D+02
     .237600000000D+06  .400000000000D+01
10 22 12 27 20  0  0.0 -.179251655936D-04 -.159161572810D-11  .000000000000D+00
     .460000000000D+02 -.778125000000D+02  .434518099423D-08  .181691126126D+01
    -.400654971600D-05  .836234644521D-02  .401400029659D-05  .515368680000D+04
     .244800000000D+06 -.255182385445D-06 -.231247445779D+00  .242143869400D-07
     .976905591696D+00  .312062500000D+03 -.247365691239D+01 -.828713090655D-08
    -.119290683221D-09  .100000000000D+01  .224200000000D+04  .000000000000D+00
     .240000000000D+01  .000000000000D+00  .232830643654D-08  .460000000000D+02
     .237600000000D+06  .400000000000D+01
31 22 12 27 20  0  0.0 -.204558949918D-03 -.113686837722D-11  .000000000000D+00
     .370000000000D+02  .276875000000D+02  .492841957417D-08  .268365420618D+01
     .138022005558D-05  .107758754166D-01  .902637839317D-05  .515362876892D+04
     .244800000000D+06 -.108033418655D-06  .188812018415D+01 -.745058059692D-07
     .954206755821D+00  .202312500000D+03  .486129797509D+00 -.799711882638D-08
     .442875590403D-09  .100000000000D+01  .224200000000D+04  .000000000000D+00
     .240000000000D+01  .000000000000D+00 -.135041773319D-07  .370000000000D+02
     .237600000000D+06  .400000000000D+01
23 22 12 27 20  0  0.0  .949949026108D-06  .909494701773D-12  .000000000000D+00
     .220000000000D+02 -.716875000000D+02  .440768359771D-08  .300679666074D+01
    -.357814133167D-05  .295809097588D-02  .374950468540D-05  .515364287758D+04
     .244800000000D+06 -.856816768646D-07 -.257687640513D+00 -.670552253723D-07
     .972006126905D+00  .311437500000D+03  .313112199445D+01 -.822605693400D-08
    -.410731394325D-10  .100000000000D+01  .224200000000D+04  .000000000000D+00
     .240000000000D+01  .000000000000D+00 -.838190317154D-08  .220000000000D+02
     .237600000000D+06  .400000000000D+01
29 22 12 27 20  0  0.0 -.576813705266D-03 -.238742359215D-11  .000000000000D+00
     .460000000000D+02  .633750000000D+02  .391944897507D-08 -.231407041364D+00
     .316463410854D-05  .209973158780D-02  .102370977402D-04  .515360615540D+04
     .244800000000D+06  .111758708954D-07 -.224804105314D+01 -.223517417908D-07
     .978505811952D+00  .191593750000D+03  .244959420969D+01 -.773925094229D-08
    -.266082511976D-09  .100000000000D+01  .224200000000D+04  .000000000000D+00
     .240000000000D+01  .000000000000D+00 -.102445483208D-07  .460000000000D+02
     .237600000000D+06  .400000000000D+01
